{"type": "FeatureCollection", "features": [ {"type": "Feature", "properties": {"norad_id": 30928, "name": "FENGYUN 1C DEB", "group": "fengyun-1c-debris", "lat": 80.58553072883747, "lon": -21.52518653270522, "alt_km": 1184.9230234923152, "timestamp": "2025-12-26T15:29:39.718925+00:00", "meta": {"OBJECT_NAME": "FENGYUN 1C DEB", "OBJECT_ID": "1999-025AZS", "EPOCH": "2025-12-25T18:01:02.783424", "MEAN_MOTION": 13.22257134, "ECCENTRICITY": 0.04498404, "INCLINATION": 98.8822, "RA_OF_ASC_NODE": 87.1382, "ARG_OF_PERICENTER": 359.9783, "MEAN_ANOMALY": 150.4632, "EPHEMERIS_TYPE": 0, "CLASSIFICATION_TYPE": "U", "NORAD_CAT_ID": 30928, "ELEMENT_SET_NO": 999, "REV_AT_EPOCH": 90520, "BSTAR": 0.0012281189, "MEAN_MOTION_DOT": 8.36e-06, "MEAN_MOTION_DDOT": 0}, "tle": {"line1": "1 30928U 99025AZS 25359.75072666  .00000836  00000+0  12281-2 0  9992", "line2": "2 30928  98.8822  87.1382 0449840 359.9783 150.4632 13.22257134905200"}}, "geometry": {"type": "Point", "coordinates": [-21.52518653270522, 80.58553072883747]}}, {"type": "Feature", "properties": {"norad_id": 30930, "name": "FENGYUN 1C DEB", "group": "fengyun-1c-debris", "lat": -45.74101119330897, "lon": -160.2054905240845, "alt_km": 847.889785033246, "timestamp": "2025-12-26T15:29:39.718935+00:00", "meta": {"OBJECT_NAME": "FENGYUN 1C DEB", "OBJECT_ID": "1999-025AZU", "EPOCH": "2025-12-26T01:20:20.657760", "MEAN_MOTION": 14.37418558, "ECCENTRICITY": 0.01096221, "INCLINATION": 98.2142, "RA_OF_ASC_NODE": 27.7556, "ARG_OF_PERICENTER": 66.7393, "MEAN_ANOMALY": 348.8311, "EPHEMERIS_TYPE": 0, "CLASSIFICATION_TYPE": "U", "NORAD_CAT_ID": 30930, "ELEMENT_SET_NO": 999, "REV_AT_EPOCH": 98523, "BSTAR": 0.00033220225, "MEAN_MOTION_DOT": 1.022e-05, "MEAN_MOTION_DDOT": 0}, "tle": {"line1": "1 30930U 99025AZU 25360.05579465  .00001022  00000+0  33220-3 0  9994", "line2": "2 30930  98.2142  27.7556 0109622  66.7393 348.8311 14.37418558985230"}}, "geometry": {"type": "Point", "coordinates": [-160.2054905240845, -45.74101119330897]}}, {"type": "Feature", "properties": {"norad_id": 30931, "name": "FENGYUN 1C DEB", "group": "fengyun-1c-debris", "lat": 66.28718590646731, "lon": 36.670069179548385, "alt_km": 852.9916330234983, "timestamp": "2025-12-26T15:29:39.718946+00:00", "meta": {"OBJECT_NAME": "FENGYUN 1C DEB", "OBJECT_ID": "1999-025AZV", "EPOCH": "2025-12-26T03:27:29.507328", "MEAN_MOTION": 14.015361, "ECCENTRICITY": 0.0092592, "INCLINATION": 99.1701, "RA_OF_ASC_NODE": 57.7433, "ARG_OF_PERICENTER": 4.4832, "MEAN_ANOMALY": 53.6493, "EPHEMERIS_TYPE": 0, "CLASSIFICATION_TYPE": "U", "NORAD_CAT_ID": 30931, "ELEMENT_SET_NO": 999, "REV_AT_EPOCH": 96113, "BSTAR": 0.00052321724, "MEAN_MOTION_DOT": 7.76e-06, "MEAN_MOTION_DDOT": 0}, "tle": {"line1": "1 30931U 99025AZV 25360.14409152  .00000776  00000+0  52322-3 0  9999", "line2": "2 30931  99.1701  57.7433 0092592   4.4832  53.6493 14.01536100961133"}}, "geometry": {"type": "Point", "coordinates": [36.670069179548385, 66.28718590646731]}}, {"type": "Feature", "properties": {"norad_id": 30932, "name": "FENGYUN 1C DEB", "group": "fengyun-1c-debris", "lat": -3.766888082152921, "lon": 113.20960566208811, "alt_km": 791.2759464057381, "timestamp": "2025-12-26T15:29:39.718956+00:00", "meta": {"OBJECT_NAME": "FENGYUN 1C DEB", "OBJECT_ID": "1999-025AZW", "EPOCH": "2025-12-26T06:12:58.933152", "MEAN_MOTION": 14.26972307, "ECCENTRICITY": 0.00560884, "INCLINATION": 98.9094, "RA_OF_ASC_NODE": 293.4078, "ARG_OF_PERICENTER": 254.8173, "MEAN_ANOMALY": 104.6799, "EPHEMERIS_TYPE": 0, "CLASSIFICATION_TYPE": "U", "NORAD_CAT_ID": 30932, "ELEMENT_SET_NO": 999, "REV_AT_EPOCH": 96587, "BSTAR": 0.002611541, "MEAN_MOTION_DOT": 6.416e-05, "MEAN_MOTION_DDOT": 0}, "tle": {"line1": "1 30932U 99025AZW 25360.25901543  .00006416  00000+0  26115-2 0  9990", "line2": "2 30932  98.9094 293.4078 0056088 254.8173 104.6799 14.26972307965870"}}, "geometry": {"type": "Point", "coordinates": [113.20960566208811, -3.766888082152921]}}, {"type": "Feature", "properties": {"norad_id": 30933, "name": "FENGYUN 1C DEB", "group": "fengyun-1c-debris", "lat": -30.682177168907014, "lon": 158.4126384319674, "alt_km": 757.4111168597838, "timestamp": "2025-12-26T15:29:39.718966+00:00", "meta": {"OBJECT_NAME": "FENGYUN 1C DEB", "OBJECT_ID": "1999-025AZX", "EPOCH": "2025-12-25T05:39:04.124160", "MEAN_MOTION": 14.36828858, "ECCENTRICITY": 0.0075314, "INCLINATION": 99.0487, "RA_OF_ASC_NODE": 342.3567, "ARG_OF_PERICENTER": 286.6966, "MEAN_ANOMALY": 195.1124, "EPHEMERIS_TYPE": 0, "CLASSIFICATION_TYPE": "U", "NORAD_CAT_ID": 30933, "ELEMENT_SET_NO": 999, "REV_AT_EPOCH": 96051, "BSTAR": 0.0049802, "MEAN_MOTION_DOT": 0.00015183, "MEAN_MOTION_DDOT": 0}, "tle": {"line1": "1 30933U 99025AZX 25359.23546440  .00015183  00000+0  49802-2 0  9997", "line2": "2 30933  99.0487 342.3567 0075314 286.6966 195.1124 14.36828858960517"}}, "geometry": {"type": "Point", "coordinates": [158.4126384319674, -30.682177168907014]}}, {"type": "Feature", "properties": {"norad_id": 30934, "name": "FENGYUN 1C DEB", "group": "fengyun-1c-debris", "lat": -27.64076803361366, "lon": -119.42577257999353, "alt_km": 1011.6470173339221, "timestamp": "2025-12-26T15:29:39.718976+00:00", "meta": {"OBJECT_NAME": "FENGYUN 1C DEB", "OBJECT_ID": "1999-025AZY", "EPOCH": "2025-12-26T06:42:49.500576", "MEAN_MOTION": 13.46792195, "ECCENTRICITY": 0.03413956, "INCLINATION": 98.7654, "RA_OF_ASC_NODE": 235.6189, "ARG_OF_PERICENTER": 47.0677, "MEAN_ANOMALY": 315.8571, "EPHEMERIS_TYPE": 0, "CLASSIFICATION_TYPE": "U", "NORAD_CAT_ID": 30934, "ELEMENT_SET_NO": 999, "REV_AT_EPOCH": 91890, "BSTAR": 0.0022202719, "MEAN_MOTION_DOT": 1.88e-05, "MEAN_MOTION_DDOT": 0}, "tle": {"line1": "1 30934U 99025AZY 25360.27973959  .00001880  00000+0  22203-2 0  9998", "line2": "2 30934  98.7654 235.6189 0341395  47.0677 315.8571 13.46792195918904"}}, "geometry": {"type": "Point", "coordinates": [-119.42577257999353, -27.64076803361366]}}, {"type": "Feature", "properties": {"norad_id": 30936, "name": "FENGYUN 1C DEB", "group": "fengyun-1c-debris", "lat": -57.690259484182256, "lon": -162.71118767094868, "alt_km": 788.3275078844981, "timestamp": "2025-12-26T15:29:39.718986+00:00", "meta": {"OBJECT_NAME": "FENGYUN 1C DEB", "OBJECT_ID": "1999-025BAA", "EPOCH": "2025-12-25T22:04:31.178784", "MEAN_MOTION": 14.23402013, "ECCENTRICITY": 0.0046149, "INCLINATION": 98.5806, "RA_OF_ASC_NODE": 30.3937, "ARG_OF_PERICENTER": 251.6756, "MEAN_ANOMALY": 230.0536, "EPHEMERIS_TYPE": 0, "CLASSIFICATION_TYPE": "U", "NORAD_CAT_ID": 30936, "ELEMENT_SET_NO": 999, "REV_AT_EPOCH": 97320, "BSTAR": 0.00046152, "MEAN_MOTION_DOT": 1.016e-05, "MEAN_MOTION_DDOT": 0}, "tle": {"line1": "1 30936U 99025BAA 25359.91980531  .00001016  00000+0  46152-3 0  9994", "line2": "2 30936  98.5806  30.3937 0046149 251.6756 230.0536 14.23402013973200"}}, "geometry": {"type": "Point", "coordinates": [-162.71118767094868, -57.690259484182256]}}, {"type": "Feature", "properties": {"norad_id": 30937, "name": "FENGYUN 1C DEB", "group": "fengyun-1c-debris", "lat": 57.72529568887169, "lon": -112.50897662995266, "alt_km": 917.8907921165155, "timestamp": "2025-12-26T15:29:39.718997+00:00", "meta": {"OBJECT_NAME": "FENGYUN 1C DEB", "OBJECT_ID": "1999-025BAB", "EPOCH": "2025-12-26T03:11:05.873568", "MEAN_MOTION": 13.95588353, "ECCENTRICITY": 0.00751924, "INCLINATION": 99.087, "RA_OF_ASC_NODE": 52.3062, "ARG_OF_PERICENTER": 16.809, "MEAN_ANOMALY": 47.9807, "EPHEMERIS_TYPE": 0, "CLASSIFICATION_TYPE": "U", "NORAD_CAT_ID": 30937, "ELEMENT_SET_NO": 999, "REV_AT_EPOCH": 95903, "BSTAR": -3.6350509e-05, "MEAN_MOTION_DOT": -9.5e-07, "MEAN_MOTION_DDOT": 0}, "tle": {"line1": "1 30937U 99025BAB 25360.13270687 -.00000095  00000+0 -36351-4 0  9994", "line2": "2 30937  99.0870  52.3062 0075192  16.8090  47.9807 13.95588353959034"}}, "geometry": {"type": "Point", "coordinates": [-112.50897662995266, 57.72529568887169]}}, {"type": "Feature", "properties": {"norad_id": 30938, "name": "FENGYUN 1C DEB", "group": "fengyun-1c-debris", "lat": -25.718436292630283, "lon": 17.903333692286644, "alt_km": 803.410116703677, "timestamp": "2025-12-26T15:29:39.719007+00:00", "meta": {"OBJECT_NAME": "FENGYUN 1C DEB", "OBJECT_ID": "1999-025BAC", "EPOCH": "2025-12-26T00:41:32.773920", "MEAN_MOTION": 14.19838538, "ECCENTRICITY": 0.00454001, "INCLINATION": 98.5904, "RA_OF_ASC_NODE": 13.1295, "ARG_OF_PERICENTER": 304.8495, "MEAN_ANOMALY": 118.2905, "EPHEMERIS_TYPE": 0, "CLASSIFICATION_TYPE": "U", "NORAD_CAT_ID": 30938, "ELEMENT_SET_NO": 999, "REV_AT_EPOCH": 97308, "BSTAR": 0.00032897227, "MEAN_MOTION_DOT": 6.62e-06, "MEAN_MOTION_DDOT": 0}, "tle": {"line1": "1 30938U 99025BAC 25360.02885155  .00000662  00000+0  32897-3 0  9993", "line2": "2 30938  98.5904  13.1295 0045400 304.8495 118.2905 14.19838538973080"}}, "geometry": {"type": "Point", "coordinates": [17.903333692286644, -25.718436292630283]}}, {"type": "Feature", "properties": {"norad_id": 30940, "name": "FENGYUN 1C DEB", "group": "fengyun-1c-debris", "lat": 42.66765175930716, "lon": -7.667513276728926, "alt_km": 855.8544828069298, "timestamp": "2025-12-26T15:29:39.719018+00:00", "meta": {"OBJECT_NAME": "FENGYUN 1C DEB", "OBJECT_ID": "1999-025BAE", "EPOCH": "2025-12-22T05:52:00.054912", "MEAN_MOTION": 14.08319135, "ECCENTRICITY": 0.00407229, "INCLINATION": 98.6214, "RA_OF_ASC_NODE": 356.1653, "ARG_OF_PERICENTER": 336.7041, "MEAN_ANOMALY": 84.9821, "EPHEMERIS_TYPE": 0, "CLASSIFICATION_TYPE": "U", "NORAD_CAT_ID": 30940, "ELEMENT_SET_NO": 999, "REV_AT_EPOCH": 96266, "BSTAR": 0.00045494688, "MEAN_MOTION_DOT": 7.42e-06, "MEAN_MOTION_DDOT": 0}, "tle": {"line1": "1 30940U 99025BAE 25356.24444508  .00000742  00000+0  45495-3 0  9995", "line2": "2 30940  98.6214 356.1653 0040722 336.7041  84.9821 14.08319135962662"}}, "geometry": {"type": "Point", "coordinates": [-7.667513276728926, 42.66765175930716]}}]}